start=new Date('2023-07-03T00:00:00.000Z').valueOf();
sats=[{"OBJECT_TYPE":"PAYLOAD","NORAD_CAT_ID":"48653","REF_FRAME":"TEME","SEMIMAJOR_AXIS":"6925.368","MEAN_MOTION":"15.06393732","PERIOD":"95.593","EPOCH":"2023-07-02T11:24:18.004896","CLASSIFICATION_TYPE":"U","CENTER_NAME":"EARTH","ECCENTRICITY":"0.00012840","FILE":"3947722","BSTAR":"-0.00001676700000","MEAN_MOTION_DOT":"-0.00000531","ARG_OF_PERICENTER":"85.4796","DECAY_DATE":null,"PERIAPSIS":"546.344","TLE_LINE1":"1 48653U 21044R   23183.47520839 -.00000531  00000-0 -16767-4 0  9994","COUNTRY_CODE":"US","APOAPSIS":"548.122","INCLINATION":"53.0538","ELEMENT_SET_NO":"999","GP_ID":"234674170","TIME_SYSTEM":"UTC","LAUNCH_DATE":"2021-05-26","OBJECT_NAME":"STARLINK-2720","SITE":"AFETR","RA_OF_ASC_NODE":"206.4602","OBJECT_ID":"2021-044R","EPHEMERIS_TYPE":"0","MEAN_ELEMENT_THEORY":"SGP4","TLE_LINE2":"2 48653  53.0538 206.4602 0001284  85.4796 274.6339 15.06393732116658","RCS_SIZE":"LARGE","MEAN_ANOMALY":"274.6339","REV_AT_EPOCH":"11665","MEAN_MOTION_DDOT":"0.0000000000000"},{"PERIOD":"95.592","EPOCH":"2023-07-02T01:45:45.097632","CLASSIFICATION_TYPE":"U","NORAD_CAT_ID":"48654","OBJECT_TYPE":"PAYLOAD","MEAN_MOTION":"15.06395079","SEMIMAJOR_AXIS":"6925.364","REF_FRAME":"TEME","BSTAR":"-0.00000055841000","ARG_OF_PERICENTER":"93.3932","MEAN_MOTION_DOT":"-0.00000290","CENTER_NAME":"EARTH","ECCENTRICITY":"0.00010900","FILE":"3947261","TIME_SYSTEM":"UTC","ELEMENT_SET_NO":"999","GP_ID":"234662146","COUNTRY_CODE":"US","TLE_LINE1":"1 48654U 21044S   23183.07343863 -.00000290  00000-0 -55841-6 0  9991","APOAPSIS":"547.984","INCLINATION":"53.0533","DECAY_DATE":null,"PERIAPSIS":"546.474","TLE_LINE2":"2 48654  53.0533 208.2635 0001090  93.3932 266.7182 15.06395079116659","MEAN_ELEMENT_THEORY":"SGP4","EPHEMERIS_TYPE":"0","MEAN_MOTION_DDOT":"0.0000000000000","REV_AT_EPOCH":"11665","RCS_SIZE":"LARGE","MEAN_ANOMALY":"266.7182","OBJECT_NAME":"STARLINK-2651","SITE":"AFETR","LAUNCH_DATE":"2021-05-26","OBJECT_ID":"2021-044S","RA_OF_ASC_NODE":"208.2635"},{"ELEMENT_SET_NO":"999","GP_ID":"234676007","TIME_SYSTEM":"UTC","DECAY_DATE":null,"PERIAPSIS":"546.602","TLE_LINE1":"1 48655U 21044T   23183.46784643  .00007131  00000-0  49766-3 0  9995","COUNTRY_CODE":"US","INCLINATION":"53.0538","APOAPSIS":"548.086","EPHEMERIS_TYPE":"0","MEAN_ELEMENT_THEORY":"SGP4","TLE_LINE2":"2 48655  53.0538 206.4930 0001072 104.4350 255.6758 15.06357451116659","RCS_SIZE":"LARGE","MEAN_ANOMALY":"255.6758","REV_AT_EPOCH":"11665","MEAN_MOTION_DDOT":"0.0000000000000","LAUNCH_DATE":"2021-05-26","OBJECT_NAME":"STARLINK-2657","SITE":"AFETR","RA_OF_ASC_NODE":"206.4930","OBJECT_ID":"2021-044T","PERIOD":"95.595","EPOCH":"2023-07-02T11:13:41.931552","CLASSIFICATION_TYPE":"U","OBJECT_TYPE":"PAYLOAD","NORAD_CAT_ID":"48655","REF_FRAME":"TEME","SEMIMAJOR_AXIS":"6925.479","MEAN_MOTION":"15.06357451","BSTAR":"0.00049766000000","MEAN_MOTION_DOT":"0.00007131","ARG_OF_PERICENTER":"104.4350","CENTER_NAME":"EARTH","FILE":"3947805","ECCENTRICITY":"0.00010720"},{"RA_OF_ASC_NODE":"208.2990","OBJECT_ID":"2021-044U","LAUNCH_DATE":"2021-05-26","SITE":"AFETR","OBJECT_NAME":"STARLINK-2701","RCS_SIZE":"LARGE","MEAN_ANOMALY":"280.6518","REV_AT_EPOCH":"11659","MEAN_MOTION_DDOT":"0.0000000000000","MEAN_ELEMENT_THEORY":"SGP4","EPHEMERIS_TYPE":"0","TLE_LINE2":"2 48656  53.0534 208.2990 0001113  79.4596 280.6518 15.06399633116594","DECAY_DATE":null,"PERIAPSIS":"546.444","TLE_LINE1":"1 48656U 21044U   23183.06606717 -.00000186  00000-0  64095-5 0  9995","INCLINATION":"53.0534","COUNTRY_CODE":"US","APOAPSIS":"547.985","GP_ID":"234662668","ELEMENT_SET_NO":"999","TIME_SYSTEM":"UTC","FILE":"3947274","ECCENTRICITY":"0.00011130","CENTER_NAME":"EARTH","MEAN_MOTION_DOT":"-0.00000186","ARG_OF_PERICENTER":"79.4596","BSTAR":"0.00000640950000","REF_FRAME":"TEME","SEMIMAJOR_AXIS":"6925.350","MEAN_MOTION":"15.06399633","OBJECT_TYPE":"PAYLOAD","NORAD_CAT_ID":"48656","EPOCH":"2023-07-02T01:35:08.203488","CLASSIFICATION_TYPE":"U","PERIOD":"95.592"},{"MEAN_MOTION_DDOT":"0.0000000000000","REV_AT_EPOCH":"11665","RCS_SIZE":"LARGE","MEAN_ANOMALY":"271.3930","TLE_LINE2":"2 48657  53.0531 208.3157 0001127  88.7188 271.3930 15.06394375116653","MEAN_ELEMENT_THEORY":"SGP4","EPHEMERIS_TYPE":"0","RA_OF_ASC_NODE":"208.3157","OBJECT_ID":"2021-044V","SITE":"AFETR","OBJECT_NAME":"STARLINK-2734","LAUNCH_DATE":"2021-05-26","TIME_SYSTEM":"UTC","ELEMENT_SET_NO":"999","GP_ID":"234662166","COUNTRY_CODE":"US","TLE_LINE1":"1 48657U 21044V   23183.06238590  .00000690  00000-0  65238-4 0  9994","APOAPSIS":"548.011","INCLINATION":"53.0531","DECAY_DATE":null,"PERIAPSIS":"546.450","ARG_OF_PERICENTER":"88.7188","MEAN_MOTION_DOT":"0.00000690","BSTAR":"0.00006523800000","ECCENTRICITY":"0.00011270","FILE":"3947274","CENTER_NAME":"EARTH","EPOCH":"2023-07-02T01:29:50.141760","CLASSIFICATION_TYPE":"U","PERIOD":"95.592","MEAN_MOTION":"15.06394375","SEMIMAJOR_AXIS":"6925.366","REF_FRAME":"TEME","NORAD_CAT_ID":"48657","OBJECT_TYPE":"PAYLOAD"},{"FILE":"3947532","ECCENTRICITY":"0.00010180","CENTER_NAME":"EARTH","MEAN_MOTION_DOT":"0.00000132","ARG_OF_PERICENTER":"83.6707","BSTAR":"0.00002776500000","REF_FRAME":"TEME","MEAN_MOTION":"15.06392117","SEMIMAJOR_AXIS":"6925.373","NORAD_CAT_ID":"48658","OBJECT_TYPE":"PAYLOAD","CLASSIFICATION_TYPE":"U","EPOCH":"2023-07-02T09:22:13.657440","PERIOD":"95.593","RA_OF_ASC_NODE":"206.8433","OBJECT_ID":"2021-044W","LAUNCH_DATE":"2021-05-26","SITE":"AFETR","OBJECT_NAME":"STARLINK-2647","RCS_SIZE":"LARGE","MEAN_ANOMALY":"276.4398","MEAN_MOTION_DDOT":"0.0000000000000","REV_AT_EPOCH":"11670","EPHEMERIS_TYPE":"0","MEAN_ELEMENT_THEORY":"SGP4","TLE_LINE2":"2 48658  53.0527 206.8433 0001018  83.6707 276.4398 15.06392117116701","PERIAPSIS":"546.533","DECAY_DATE":null,"TLE_LINE1":"1 48658U 21044W   23183.39043585  .00000132  00000-0  27765-4 0  9993","APOAPSIS":"547.943","COUNTRY_CODE":"US","INCLINATION":"53.0527","ELEMENT_SET_NO":"999","GP_ID":"234669194","TIME_SYSTEM":"UTC"},{"OBJECT_TYPE":"PAYLOAD","NORAD_CAT_ID":"48659","REF_FRAME":"TEME","SEMIMAJOR_AXIS":"6925.356","MEAN_MOTION":"15.06397453","PERIOD":"95.592","CLASSIFICATION_TYPE":"U","EPOCH":"2023-07-02T10:52:27.312096","CENTER_NAME":"EARTH","ECCENTRICITY":"0.00010880","FILE":"3947534","BSTAR":"0.00004346800000","MEAN_MOTION_DOT":"0.00000366","ARG_OF_PERICENTER":"77.4164","DECAY_DATE":null,"PERIAPSIS":"546.468","COUNTRY_CODE":"US","TLE_LINE1":"1 48659U 21044X   23183.45309389  .00000366  00000-0  43468-4 0  9995","INCLINATION":"53.0543","APOAPSIS":"547.975","GP_ID":"234669391","ELEMENT_SET_NO":"999","TIME_SYSTEM":"UTC","LAUNCH_DATE":"2021-05-26","OBJECT_NAME":"STARLINK-2717","SITE":"AFETR","RA_OF_ASC_NODE":"206.5609","OBJECT_ID":"2021-044X","EPHEMERIS_TYPE":"0","MEAN_ELEMENT_THEORY":"SGP4","TLE_LINE2":"2 48659  53.0543 206.5609 0001088  77.4164 282.6946 15.06397453116657","RCS_SIZE":"LARGE","MEAN_ANOMALY":"282.6946","REV_AT_EPOCH":"11665","MEAN_MOTION_DDOT":"0.0000000000000"},{"CENTER_NAME":"EARTH","ECCENTRICITY":"0.00010980","FILE":"3947534","BSTAR":"-0.00008991500000","MEAN_MOTION_DOT":"-0.00001620","ARG_OF_PERICENTER":"84.3652","NORAD_CAT_ID":"48660","OBJECT_TYPE":"PAYLOAD","REF_FRAME":"TEME","MEAN_MOTION":"15.06390360","SEMIMAJOR_AXIS":"6925.378","PERIOD":"95.593","EPOCH":"2023-07-02T10:47:08.643840","CLASSIFICATION_TYPE":"U","LAUNCH_DATE":"2021-05-26","SITE":"AFETR","OBJECT_NAME":"STARLINK-2688","RA_OF_ASC_NODE":"206.5786","OBJECT_ID":"2021-044Y","MEAN_ELEMENT_THEORY":"SGP4","EPHEMERIS_TYPE":"0","TLE_LINE2":"2 48660  53.0529 206.5786 0001098  84.3652 275.7462 15.06390360116655","RCS_SIZE":"LARGE","MEAN_ANOMALY":"275.7462","MEAN_MOTION_DDOT":"0.0000000000000","REV_AT_EPOCH":"11665","DECAY_DATE":null,"PERIAPSIS":"546.483","COUNTRY_CODE":"US","TLE_LINE1":"1 48660U 21044Y   23183.44940560 -.00001620  00000-0 -89915-4 0  9991","INCLINATION":"53.0529","APOAPSIS":"548.004","GP_ID":"234669217","ELEMENT_SET_NO":"999","TIME_SYSTEM":"UTC"},{"TLE_LINE2":"2 48661  53.0536 199.5498 0001355  89.7158 270.3987 15.06400205116755","MEAN_ELEMENT_THEORY":"SGP4","EPHEMERIS_TYPE":"0","MEAN_MOTION_DDOT":"0.0000000000000","REV_AT_EPOCH":"11675","MEAN_ANOMALY":"270.3987","RCS_SIZE":"LARGE","SITE":"AFETR","OBJECT_NAME":"STARLINK-2708","LAUNCH_DATE":"2021-05-26","OBJECT_ID":"2021-044Z","RA_OF_ASC_NODE":"199.5498","TIME_SYSTEM":"UTC","ELEMENT_SET_NO":"999","GP_ID":"234662743","COUNTRY_CODE":"US","TLE_LINE1":"1 48661U 21044Z   23182.78686465 -.00000161  00000-0  81039-5 0  9997","APOAPSIS":"548.151","INCLINATION":"53.0536","PERIAPSIS":"546.275","DECAY_DATE":null,"BSTAR":"0.00000810390000","ARG_OF_PERICENTER":"89.7158","MEAN_MOTION_DOT":"-0.00000161","CENTER_NAME":"EARTH","FILE":"3947267","ECCENTRICITY":"0.00013550","PERIOD":"95.592","EPOCH":"2023-07-01T18:53:05.105760","CLASSIFICATION_TYPE":"U","NORAD_CAT_ID":"48661","OBJECT_TYPE":"PAYLOAD","MEAN_MOTION":"15.06400205","SEMIMAJOR_AXIS":"6925.348","REF_FRAME":"TEME"},{"RA_OF_ASC_NODE":"198.3738","OBJECT_ID":"2021-044AA","LAUNCH_DATE":"2021-05-26","SITE":"AFETR","OBJECT_NAME":"STARLINK-2726","MEAN_ANOMALY":"302.1761","RCS_SIZE":"LARGE","REV_AT_EPOCH":"11673","MEAN_MOTION_DDOT":"0.0000000000000","MEAN_ELEMENT_THEORY":"SGP4","EPHEMERIS_TYPE":"0","TLE_LINE2":"2 48662  53.0539 198.3738 0000959  57.9321 302.1761 15.06397238116734","PERIAPSIS":"546.558","DECAY_DATE":null,"COUNTRY_CODE":"US","TLE_LINE1":"1 48662U 21044AA  23183.04855943  .00001104  00000-0  93008-4 0  9992","APOAPSIS":"547.886","INCLINATION":"53.0539","GP_ID":"234662246","ELEMENT_SET_NO":"999","TIME_SYSTEM":"UTC","FILE":"3947267","ECCENTRICITY":"0.00009590","CENTER_NAME":"EARTH","MEAN_MOTION_DOT":"0.00001104","ARG_OF_PERICENTER":"57.9321","BSTAR":"0.00009300800000","REF_FRAME":"TEME","SEMIMAJOR_AXIS":"6925.357","MEAN_MOTION":"15.06397238","OBJECT_TYPE":"PAYLOAD","NORAD_CAT_ID":"48662","EPOCH":"2023-07-02T01:09:55.534752","CLASSIFICATION_TYPE":"U","PERIOD":"95.592"}];
